0 DELTA 1 DEB
1 10656U 76077S   13282.12369468 -.00000047  00000-0 -20141-4 0  1335
2 10656 102.0927 336.4238 0077984 113.4980 275.1729 12.36819938678993
0 DELTA 1 DEB
1 10656U 76077S   13287.13798650 -.00000001  00000-0  33129-3 0  1350
2 10656 102.0918 341.3731 0077839 104.3170 281.5163 12.36819775679617
0 DELTA 1 DEB
1 10656U 76077S   13289.15986810 -.00000005  00000-0  30179-3 0  1368
2 10656 102.0911 343.3688 0077800 100.5970 284.0453 12.36819994679867
0 DELTA 1 DEB
1 10656U 76077S   13291.43518707 -.00000026  00000-0  14371-3 0  1378
2 10656 102.0906 345.6144 0077748 096.4081 335.0210 12.36820232680148
0 DELTA 1 DEB
1 10656U 76077S   13293.78915575 -.00000042  00000-0  18230-4 0  1380
2 10656 102.0903 347.9374 0077684 092.0793 016.1857 12.36820414680434
0 DELTA 1 DEB
1 10656U 76077S   13295.81283885 -.00000049  00000-0 -35541-4 0  1391
2 10656 102.0903 349.9344 0077637 088.3552 026.7415 12.36820385680683
